[{"OBJECT_NAME":"JILIN-1 GAOFEN 03D48","OBJECT_ID":"2022-167P","EPOCH":"2026-03-09T23:48:37.804608","MEAN_MOTION":15.32947339,"ECCENTRICITY":0.00075954,"INCLINATION":97.6781,"RA_OF_ASC_NODE":234.4968,"ARG_OF_PERICENTER":111.3084,"MEAN_ANOMALY":248.8969,"EPHEMERIS_TYPE":0,"CLASSIFICATION_TYPE":"U","NORAD_CAT_ID":54695,"ELEMENT_SET_NO":999,"REV_AT_EPOCH":18018,"BSTAR":0.00049677114,"MEAN_MOTION_DOT":0.00015755,"MEAN_MOTION_DDOT":0},{"OBJECT_NAME":"STARLINK-35150","OBJECT_ID":"2025-210P","EPOCH":"2026-03-09T22:13:57.615456","MEAN_MOTION":15.30218997,"ECCENTRICITY":0.00011319,"INCLINATION":53.1599,"RA_OF_ASC_NODE":306.2381,"ARG_OF_PERICENTER":113.8482,"MEAN_ANOMALY":246.2638,"EPHEMERIS_TYPE":0,"CLASSIFICATION_TYPE":"U","NORAD_CAT_ID":65635,"ELEMENT_SET_NO":999,"REV_AT_EPOCH":2776,"BSTAR":0.0010334987,"MEAN_MOTION_DOT":0.00030393,"MEAN_MOTION_DDOT":0}]
